CCSDS_OEM_VERS = 2.0
CREATION_DATE  = 2025-03-14T21:53:29.476
ORIGINATOR     = NASA/JSC/FOD/TOPO

META_START
OBJECT_NAME          = ISS
OBJECT_ID            = 1998-067-A
CENTER_NAME          = Earth
REF_FRAME            = EME2000
TIME_SYSTEM          = UTC
START_TIME           = 2025-03-14T12:00:00.000
USEABLE_START_TIME   = 2025-03-14T12:00:00.000
USEABLE_STOP_TIME    = 2025-03-29T12:00:00.000
STOP_TIME            = 2025-03-29T12:00:00.000
META_STOP

COMMENT Source: This file was produced by the TOPO office within FOD at JSC.
COMMENT Units are in kg and m^2
COMMENT MASS=461262.00
COMMENT DRAG_AREA=1207.02
COMMENT DRAG_COEFF=1.70
COMMENT SOLAR_RAD_AREA=0.00
COMMENT SOLAR_RAD_COEFF=0.00
COMMENT Orbits start at the ascending node epoch
COMMENT ISS first asc. node: EPOCH = 2025-03-14T12:49:10.922 $ ORBIT = 2048 $ LAN(DEG) = 51.15382
COMMENT ISS last asc. node : EPOCH = 2025-03-29T11:50:04.096 $ ORBIT = 2280 $ LAN(DEG) = -22.91255
COMMENT Begin sequence of events
COMMENT TRAJECTORY EVENT SUMMARY:
COMMENT 
COMMENT |       EVENT        |       TIG        | ORB |   DV    |   HA    |   HP    |
COMMENT |                    |       GMT        |     |   M/S   |   KM    |   KM    |
COMMENT |                    |                  |     |  (F/S)  |  (NM)   |  (NM)   |
COMMENT =============================================================================
COMMENT  Crew10 Launch         073:23:03:48.000             0.0     425.0     407.7
COMMENT                                                    (0.0)   (229.5)   (220.2)
COMMENT 
COMMENT  Crew10 Dock           075:03:24:57.000             0.0     425.1     407.8
COMMENT                                                    (0.0)   (229.5)   (220.2)
COMMENT 
COMMENT  Crew-9 Undock         078:12:00:00.000             0.0     425.3     406.6
COMMENT                                                    (0.0)   (229.6)   (219.5)
COMMENT 
COMMENT  GMT078 Reboost Preli  078:14:25:00.000             1.1     425.2     406.5
COMMENT                                                    (3.6)   (229.6)   (219.5)
COMMENT 
COMMENT  NG-21 Departure       080:11:35:00.000             0.0     425.2     410.1
COMMENT                                                    (0.0)   (229.6)   (221.4)
COMMENT 
COMMENT =============================================================================
COMMENT End sequence of events
2025-03-14T12:00:00.000 -4398.395777345620 -5090.866157465260 976.913565877918 3.05612145482297 -3.78838727170840 -5.91294309348716
2025-03-14T12:04:00.000 -3513.946646754230 -5803.975082197200 -460.523121442306 4.26915009355827 -2.11815213759520 -5.99237890415260
2025-03-14T12:08:00.000 -2374.162902965880 -6095.375995667410 -1864.422847460990 5.17097034170843 -0.29573703634175 -5.63532871535862
2025-03-14T12:12:00.000 -1062.049513895390 -5944.394338049980 -3132.644963313180 5.69662006058152 1.54584611332906 -4.86882837279239
2025-03-14T12:16:00.000 327.068923307455 -5362.543735003150 -4173.177660722850 5.80895744558168 3.27306950617604 -3.74963401859399
2025-03-14T12:20:00.000 1692.532802838690 -4392.460446562190 -4910.744384213680 5.50083039102049 4.76164378337014 -2.35950921689494
2025-03-14T12:24:00.000 2935.577326602520 -3104.637836019950 -5292.083770048160 4.79501665276701 5.90501781275046 -0.79903898857564
2025-03-14T12:28:00.000 3966.321384675860 -1592.289161399020 -5289.618775708420 3.74227757527830 6.62142918642822 0.81959695369557
2025-03-14T12:32:00.000 4710.071686229670 35.257600493208 -4903.334548677890 2.41770945532860 6.85908529150754 2.38013270560591
2025-03-14T12:36:00.000 5112.607927592780 1660.222077745750 -4160.847341135640 0.91591222800313 6.59980070724574 3.76989767212957
2025-03-14T12:40:00.000 5144.150390627430 3164.679835038980 -3115.597251250860 -0.65516963076319 5.86066263967930 4.88761763691634
2025-03-14T12:44:00.000 4801.713093126220 4439.025709916810 -1843.228571850200 -2.18149480907639 4.69367237030355 5.65072516428105
2025-03-14T12:48:00.000 4109.588585824440 5390.059687807810 -436.273873834530 -3.55123196663849 3.18277976065652 6.00203966557825
2025-03-14T12:52:00.000 3117.784140268450 5948.007119741390 1002.562803561720 -4.66332174151216 1.43808358194729 5.91461171024825
2025-03-14T12:56:00.000 1898.455124740960 6071.861196382870 2368.017167334360 -5.43550720651873 -0.41232174537335 5.39424716068944
2025-03-14T13:00:00.000 540.561888596986 5752.531888185480 3560.147705832110 -5.81092330761456 -2.23232394471568 4.47919975020916
2025-03-14T13:04:00.000 -856.781467517999 5013.493413655100 4491.798772892500 -5.76231548575452 -3.88840013342003 3.23704788613138
2025-03-14T13:08:00.000 -2191.677441175730 3908.929750664520 5095.040694912720 -5.29382865517836 -5.25980823910199 1.75931944475214
2025-03-14T13:12:00.000 -3366.930327957240 2519.582086891900 5326.051310697370 -4.44015615833085 -6.24720301178454 0.15413001302686
2025-03-14T13:16:00.000 -4297.065768585550 946.782138107424 5168.186782646730 -3.26368013257323 -6.77933756853068 -1.46149801034545
2025-03-14T13:20:00.000 -4914.475069992280 -694.924554585745 4633.122455049840 -1.85000551618513 -6.81798106052133 -2.97001411505303
2025-03-14T13:24:00.000 -5174.281513234110 -2286.064467185260 3759.968442599710 -0.30183143002548 -6.36052838719858 -4.26169445709620
2025-03-14T13:28:00.000 -5057.597771822670 -3710.864823425500 2612.449175988430 1.26823470868443 -5.44029699462105 -5.24237751626476
2025-03-14T13:32:00.000 -4572.954244947310 -4865.683673278380 1274.315814806820 2.74570733374102 -4.12450886115151 -5.84040705577790
2025-03-14T13:36:00.000 -3755.731364356480 -5666.637109413420 -156.769811994216 4.02276366844036 -2.50956331402022 -6.01228931567384
2025-03-14T13:40:00.000 -2665.555697133150 -6055.775373560280 -1576.445712212120 5.00645950957623 -0.71381483944515 -5.74604610359343
2025-03-14T13:44:00.000 -1381.854373571400 -6005.291924385000 -2881.371276618480 5.62576882357688 1.13154498355424 -5.06206630701757
2025-03-14T13:48:00.000 2.059384960071 -5519.403597771690 -3976.812453216100 5.83665742343515 2.89252234705240 -4.01115353494336
2025-03-14T13:52:00.000 1385.846755395370 -4633.829447315570 -4783.474367419650 5.62488035301868 4.44218344802201 -2.67028424706023
2025-03-14T13:56:00.000 2669.389421739740 -3413.003991273800 -5243.089349902260 5.00640610396178 5.66952105824986 -1.13661249143341
2025-03-14T14:00:00.000 3759.883235791980 -1945.344324662240 -5322.439710534150 4.02580833097350 6.48676815256222 0.47947453263505
2025-03-14T14:04:00.000 4578.354736001730 -336.957723391567 -5015.641249712310 2.75312238168129 6.83508611082603 2.06188634626730
2025-03-14T14:08:00.000 5065.239558052410 1295.809091358830 -4344.575674574400 1.27916224063748 6.68847840448129 3.49659851873243
2025-03-14T14:12:00.000 5184.692676163790 2834.545892898720 -3357.484753633900 -0.29028767181265 6.05597565370008 4.67926054546917
2025-03-14T14:16:00.000 4927.352734745520 4167.250735643450 -2125.724199931190 -1.84159804718133 4.98174599419721 5.52280911597374
2025-03-14T14:20:00.000 4311.278673029920 5196.525552149370 -738.788239380739 -3.26129137147778 3.54272835864280 5.96419668900450
2025-03-14T14:24:00.000 3380.877643289840 5846.899364173320 702.141240747759 -4.44474814482822 1.84360817953325 5.96980989525239
2025-03-14T14:28:00.000 2203.764313973270 6070.587201623840 2091.676221671280 -5.30445702475308 0.00895897918887 5.53847435614399
2025-03-14T14:32:00.000 865.794295894599 5851.156861061310 3328.099638493180 -5.77695035388246 -1.82623261054445 4.70179436223447
2025-03-14T14:36:00.000 -535.356215631681 5204.759415150260 4320.986986127290 -5.82779348071243 -3.52721467057183 3.52158944572041
2025-03-14T14:40:00.000 -1897.478267454040 4178.821649123750 4997.894465272150 -5.45381816487739 -4.96975755081473 2.08488996897818
2025-03-14T14:44:00.000 -3121.357291762590 2848.392151963760 5309.611814944340 -4.68290785951153 -6.04924337617712 0.49700923083304
2025-03-14T14:48:00.000 -4117.973863759290 1310.545827003660 5233.620131239770 -3.57155653776092 -6.68778619350031 -1.12628336481521
2025-03-14T14:52:00.000 -4814.884725641060 -322.696928533251 4775.624840825250 -2.20059404465491 -6.83940986546314 -2.66691023789947
2025-03-14T14:56:00.000 -5161.429440172700 -1932.456508534510 3969.125580668720 -0.66965442671519 -6.49331582269668 -4.01273407618184
2025-03-14T15:00:00.000 -5132.416439795070 -3401.601631146880 2872.997591985970 0.90993662661492 -5.67479224015388 -5.06570327578820
2025-03-14T15:04:00.000 -4729.987805779580 -4623.259234382750 1567.239821222450 2.42308401860161 -4.44357481217476 -5.74893426289027
2025-03-14T15:08:00.000 -3983.522157724210 -5508.650320390480 147.156055984195 3.75934739338518 -2.88981562596162 -6.01262437610733
2025-03-14T15:12:00.000 -2947.495955587040 -5993.637843476110 -1283.668115420600 4.82136390813536 -1.12740178637683 -5.83800952360266
2025-03-14T15:16:00.000 -1697.427156402210 -6043.408579854030 -2621.032450063160 5.53226329360373 0.71477489179006 -5.23873724118607
2025-03-14T15:20:00.000 -324.238226082819 -5654.895877434600 -3767.791775082450 5.84129415894143 2.50274355083508 -4.25949983992721
2025-03-14T15:24:00.000 1072.456153433780 -4856.792482011470 -4640.889475036480 5.72712127479248 4.10742566664783 -2.97220011114782
2025-03-14T15:28:00.000 2391.567461946490 -3707.258589966520 -5177.240628684490 5.19877428685072 5.41374800500003 -1.47030383091470
2025-03-14T15:32:00.000 3537.725052893090 -2289.607584305900 -5338.103748472370 4.29452502805648 6.32832410822375 0.13799402004322
2025-03-14T15:36:00.000 4427.975701004630 -706.343946717805 -5111.732406531230 3.07897376897311 6.78546207421410 1.73718689507321
2025-03-14T15:40:00.000 4997.622077965650 928.035161680533 -4514.218231199660 1.63884145054659 6.75152569300868 3.21210503712084
2025-03-14T15:44:00.000 5204.878992043440 2495.090090766270 -3588.463350314620 0.07728087652603 6.22753925249827 4.45577683512873
